{
  "type": "FeatureCollection",
  "features": [
    {
      "type": "Feature",
      "properties": {
        "norad_id": 38091,
        "name": "BEIDOU-2 G5 (C05)",
        "group": "gnss",
        "lat": -1.0855131532067928,
        "lon": -89.21710527629531,
        "alt_km": 35738.1829160476,
        "timestamp": "2025-12-08T08:59:01.007913+00:00",
        "meta_object_name": "BEIDOU-2 G5 (C05)",
        "meta_object_id": "2012-008A",
        "meta_epoch": "2025-12-07T22:49:38.694720",
        "meta_mean_motion": 1.00273933,
        "meta_eccentricity": 0.00125361,
        "meta_inclination": 3.0971,
        "meta_ra_of_asc_node": 70.7238,
        "meta_arg_of_pericenter": 226.7422,
        "meta_mean_anomaly": 180.645,
        "meta_ephemeris_type": 0,
        "meta_classification_type": "U",
        "meta_norad_cat_id": 38091,
        "meta_element_set_no": 999,
        "meta_rev_at_epoch": 5045,
        "meta_bstar": 0,
        "meta_mean_motion_dot": 5.8e-07,
        "meta_mean_motion_ddot": 0,
        "tle_line1": "1 38091U 12008A   25341.95114230  .00000058  00000+0  00000+0 0  9993",
        "tle_line2": "2 38091   3.0971  70.7238 0012536 226.7422 180.6450  1.00273933 50458"
      },
      "geometry": {
        "type": "Point",
        "coordinates": [
          -89.21710527629531,
          -1.0855131532067928
        ]
      }
    },
    {
      "type": "Feature",
      "properties": {
        "norad_id": 38250,
        "name": "BEIDOU-2 M3 (C11)",
        "group": "gnss",
        "lat": -38.94821859589925,
        "lon": 164.43159993317536,
        "alt_km": 21484.2337159907,
        "timestamp": "2025-12-08T08:59:01.007927+00:00",
        "meta_object_name": "BEIDOU-2 M3 (C11)",
        "meta_object_id": "2012-018A",
        "meta_epoch": "2025-12-05T21:12:32.531040",
        "meta_mean_motion": 1.86229708,
        "meta_eccentricity": 0.00244284,
        "meta_inclination": 55.926,
        "meta_ra_of_asc_node": 311.388,
        "meta_arg_of_pericenter": 273.8805,
        "meta_mean_anomaly": 85.8231,
        "meta_ephemeris_type": 0,
        "meta_classification_type": "U",
        "meta_norad_cat_id": 38250,
        "meta_element_set_no": 999,
        "meta_rev_at_epoch": 9234,
        "meta_bstar": 0,
        "meta_mean_motion_dot": -7e-07,
        "meta_mean_motion_ddot": 0,
        "tle_line1": "1 38250U 12018A   25339.88370985 -.00000070  00000+0  00000+0 0  9996",
        "tle_line2": "2 38250  55.9260 311.3880 0024428 273.8805  85.8231  1.86229708 92342"
      },
      "geometry": {
        "type": "Point",
        "coordinates": [
          164.43159993317536,
          -38.94821859589925
        ]
      }
    },
    {
      "type": "Feature",
      "properties": {
        "norad_id": 38251,
        "name": "BEIDOU-2 M4 (C12)",
        "group": "gnss",
        "lat": -55.47858773549233,
        "lon": -130.2793112411579,
        "alt_km": 21490.71542493133,
        "timestamp": "2025-12-08T08:59:01.007944+00:00",
        "meta_object_name": "BEIDOU-2 M4 (C12)",
        "meta_object_id": "2012-018B",
        "meta_epoch": "2025-12-06T21:21:07.920864",
        "meta_mean_motion": 1.86229417,
        "meta_eccentricity": 0.00155481,
        "meta_inclination": 55.8267,
        "meta_ra_of_asc_node": 310.5837,
        "meta_arg_of_pericenter": 277.2746,
        "meta_mean_anomaly": 82.5325,
        "meta_ephemeris_type": 0,
        "meta_classification_type": "U",
        "meta_norad_cat_id": 38251,
        "meta_element_set_no": 999,
        "meta_rev_at_epoch": 9236,
        "meta_bstar": 0,
        "meta_mean_motion_dot": -7e-07,
        "meta_mean_motion_ddot": 0,
        "tle_line1": "1 38251U 12018B   25340.88967501 -.00000070  00000+0  00000+0 0  9995",
        "tle_line2": "2 38251  55.8267 310.5837 0015548 277.2746  82.5325  1.86229417 92364"
      },
      "geometry": {
        "type": "Point",
        "coordinates": [
          -130.2793112411579,
          -55.47858773549233
        ]
      }
    },
    {
      "type": "Feature",
      "properties": {
        "norad_id": 38652,
        "name": "SES-5 (EGNOS/PRN 136)",
        "group": "gnss",
        "lat": -0.07561530574061309,
        "lon": -142.89049903154844,
        "alt_km": 35775.9134625013,
        "timestamp": "2025-12-08T08:59:01.007969+00:00",
        "meta_object_name": "SES-5 (EGNOS/PRN 136)",
        "meta_object_id": "2012-036A",
        "meta_epoch": "2025-12-07T22:13:07.845600",
        "meta_mean_motion": 1.0027828,
        "meta_eccentricity": 0.00023236,
        "meta_inclination": 0.0584,
        "meta_ra_of_asc_node": 304.5243,
        "meta_arg_of_pericenter": 304.6358,
        "meta_mean_anomaly": 166.0448,
        "meta_ephemeris_type": 0,
        "meta_classification_type": "U",
        "meta_norad_cat_id": 38652,
        "meta_element_set_no": 999,
        "meta_rev_at_epoch": 4254,
        "meta_bstar": 0,
        "meta_mean_motion_dot": 3.8e-07,
        "meta_mean_motion_ddot": 0,
        "tle_line1": "1 38652U 12036A   25341.92578525  .00000038  00000+0  00000+0 0  9993",
        "tle_line2": "2 38652   0.0584 304.5243 0002323 304.6358 166.0448  1.00278280 42545"
      },
      "geometry": {
        "type": "Point",
        "coordinates": [
          -142.89049903154844,
          -0.07561530574061309
        ]
      }
    },
    {
      "type": "Feature",
      "properties": {
        "norad_id": 38775,
        "name": "BEIDOU-2 M6 (C14)",
        "group": "gnss",
        "lat": 51.835198621581775,
        "lon": -168.500314862302,
        "alt_km": 21538.85993810626,
        "timestamp": "2025-12-08T08:59:01.007984+00:00",
        "meta_object_name": "BEIDOU-2 M6 (C14)",
        "meta_object_id": "2012-050B",
        "meta_epoch": "2025-12-06T01:31:40.709568",
        "meta_mean_motion": 1.86230702,
        "meta_eccentricity": 0.00109743,
        "meta_inclination": 56.3728,
        "meta_ra_of_asc_node": 69.289,
        "meta_arg_of_pericenter": 345.7667,
        "meta_mean_anomaly": 14.2153,
        "meta_ephemeris_type": 0,
        "meta_classification_type": "U",
        "meta_norad_cat_id": 38775,
        "meta_element_set_no": 999,
        "meta_rev_at_epoch": 8971,
        "meta_bstar": 0,
        "meta_mean_motion_dot": -4.7e-07,
        "meta_mean_motion_ddot": 0,
        "tle_line1": "1 38775U 12050B   25340.06366562 -.00000047  00000+0  00000+0 0  9996",
        "tle_line2": "2 38775  56.3728  69.2890 0010974 345.7667  14.2153  1.86230702 89716"
      },
      "geometry": {
        "type": "Point",
        "coordinates": [
          -168.500314862302,
          51.835198621581775
        ]
      }
    },
    {
      "type": "Feature",
      "properties": {
        "norad_id": 38779,
        "name": "GSAT-10 (GAGAN/PRN 128)",
        "group": "gnss",
        "lat": -0.0026208878576134942,
        "lon": -64.8825547952879,
        "alt_km": 35794.65255082131,
        "timestamp": "2025-12-08T08:59:01.007997+00:00",
        "meta_object_name": "GSAT-10 (GAGAN/PRN 128)",
        "meta_object_id": "2012-051B",
        "meta_epoch": "2025-12-07T21:47:38.556960",
        "meta_mean_motion": 1.00273343,
        "meta_eccentricity": 0.00021867,
        "meta_inclination": 0.0202,
        "meta_ra_of_asc_node": 264.2491,
        "meta_arg_of_pericenter": 223.8462,
        "meta_mean_anomaly": 358.7162,
        "meta_ephemeris_type": 0,
        "meta_classification_type": "U",
        "meta_norad_cat_id": 38779,
        "meta_element_set_no": 999,
        "meta_rev_at_epoch": 4818,
        "meta_bstar": 0,
        "meta_mean_motion_dot": -1.62e-06,
        "meta_mean_motion_ddot": 0,
        "tle_line1": "1 38779U 12051B   25341.90808515 -.00000162  00000+0  00000+0 0  9992",
        "tle_line2": "2 38779   0.0202 264.2491 0002186 223.8462 358.7162  1.00273343 48188"
      },
      "geometry": {
        "type": "Point",
        "coordinates": [
          -64.8825547952879,
          -0.0026208878576134942
        ]
      }
    },
    {
      "type": "Feature",
      "properties": {
        "norad_id": 38833,
        "name": "GPS BIIF-3  (PRN 24)",
        "group": "gnss",
        "lat": 6.087646038768114,
        "lon": 155.92897550920904,
        "alt_km": 19917.637399049476,
        "timestamp": "2025-12-08T08:59:01.008009+00:00",
        "meta_object_name": "GPS BIIF-3  (PRN 24)",
        "meta_object_id": "2012-053A",
        "meta_epoch": "2025-12-07T08:48:17.210304",
        "meta_mean_motion": 2.00564894,
        "meta_eccentricity": 0.01756357,
        "meta_inclination": 53.5567,
        "meta_ra_of_asc_node": 151.4587,
        "meta_arg_of_pericenter": 63.9203,
        "meta_mean_anomaly": 297.8751,
        "meta_ephemeris_type": 0,
        "meta_classification_type": "U",
        "meta_norad_cat_id": 38833,
        "meta_element_set_no": 999,
        "meta_rev_at_epoch": 9559,
        "meta_bstar": 0,
        "meta_mean_motion_dot": 5.3e-07,
        "meta_mean_motion_ddot": 0,
        "tle_line1": "1 38833U 12053A   25341.36686586  .00000053  00000+0  00000+0 0  9995",
        "tle_line2": "2 38833  53.5567 151.4587 0175635  63.9203 297.8751  2.00564894 95594"
      },
      "geometry": {
        "type": "Point",
        "coordinates": [
          155.92897550920904,
          6.087646038768114
        ]
      }
    }
  ]
}